COMMENT,ORIGINATOR,NORAD_CAT_ID,OBJECT_NAME,OBJECT_TYPE,CLASSIFICATION_TYPE,INTLDES,EPOCH,EPOCH_MICROSECONDS,MEAN_MOTION,ECCENTRICITY,INCLINATION,RA_OF_ASC_NODE,ARG_OF_PERICENTER,MEAN_ANOMALY,EPHEMERIS_TYPE,ELEMENT_SET_NO,REV_AT_EPOCH,BSTAR,MEAN_MOTION_DOT,MEAN_MOTION_DDOT,FILE,TLE_LINE0,TLE_LINE1,TLE_LINE2,OBJECT_ID,OBJECT_NUMBER,SEMIMAJOR_AXIS,PERIOD,APOGEE,PERIGEE,DECAYED
GENERATED VIA SPACETRACK.ORG API,18 SPCS,50803,STARLINK-3321,PAYLOAD,U,22001A,2024-09-06 01:27:51,926688,15.08838495,0.000144,53.2173,116.496,95.3289,264.7867,0,999,14870,3.8868e-05,3.31e-06,0.0,4473601,0 STARLINK-3321,1 50803U 22001A   24250.06101767  .00000331  00000-0  38868-4 0  9996,2 50803  53.2173 116.4960 0001440  95.3289 264.7867 15.08838495148702,2022-001A,50803,6917.885,95.438,540.746,538.754,1
GENERATED VIA SPACETRACK.ORG API,18 SPCS,50803,STARLINK-3321,PAYLOAD,U,22001A,2024-09-06 01:27:51,926688,15.08838495,0.000144,53.2173,116.496,95.3289,264.7867,0,999,14743,3.8868e-05,3.31e-06,0.0,4474805,0 STARLINK-3321,1 50803U 22001A   24250.06101767  .00000331  00000-0  38868-4 0  9996,2 50803  53.2173 116.4960 0001440  95.3289 264.7867 15.08838495147431,2022-001A,50803,6917.885,95.438,540.746,538.754,1
GENERATED VIA SPACETRACK.ORG API,18 SPCS,50803,STARLINK-3321,PAYLOAD,U,22001A,2024-09-07 01:18:39,85920,15.08841407,0.0001375,53.218,112.0355,89.4354,270.6796,0,999,14758,9.3864e-05,1.206e-05,0.0,4476648,0 STARLINK-3321,1 50803U 22001A   24251.05461905  .00001206  00000-0  93864-4 0  9998,2 50803  53.2180 112.0355 0001375  89.4354 270.6796 15.08841407147583,2022-001A,50803,6917.876,95.437,540.692,538.79,1
GENERATED VIA SPACETRACK.ORG API,18 SPCS,50803,STARLINK-3321,PAYLOAD,U,22001A,2024-09-07 20:23:17,135232,15.08839947,0.0001429,53.2184,108.4674,89.8909,270.2247,0,999,14897,9.1174e-05,1.163e-05,0.0,4476846,0 STARLINK-3321,1 50803U 22001A   24251.84950388  .00001163  00000-0  91174-4 0  9997,2 50803  53.2184 108.4674 0001429  89.8909 270.2247 15.08839947148977,2022-001A,50803,6917.881,95.438,540.734,538.757,1
GENERATED VIA SPACETRACK.ORG API,18 SPCS,50803,STARLINK-3321,PAYLOAD,U,22001A,2024-09-07 21:58:40,170144,15.08841384,0.0001364,53.2179,108.1702,84.0653,276.0495,0,999,14771,0.0001134,1.517e-05,0.0,4477330,0 STARLINK-3321,1 50803U 22001A   24251.91574271  .00001517  00000-0  11340-3 0  9997,2 50803  53.2179 108.1702 0001364  84.0653 276.0495 15.08841384147719,2022-001A,50803,6917.876,95.437,540.685,538.798,1
GENERATED VIA SPACETRACK.ORG API,18 SPCS,50803,STARLINK-3321,PAYLOAD,U,22001A,2024-09-08 07:30:58,996512,15.08841504,0.0001418,53.2184,106.3861,90.5321,269.5834,0,999,14777,0.0001001,1.306e-05,0.0,4478647,0 STARLINK-3321,1 50803U 22001A   24252.31318283  .00001306  00000-0  10010-3 0  9990,2 50803  53.2184 106.3861 0001418  90.5321 269.5834 15.08841504147779,2022-001A,50803,6917.876,95.437,540.722,538.76,1
GENERATED VIA SPACETRACK.ORG API,18 SPCS,50803,STARLINK-3321,PAYLOAD,U,22001A,2024-09-08 21:49:26,747904,15.0885133,0.0001383,53.2179,103.7092,88.314,271.801,0,999,14786,8.2387e-05,1.024e-05,0.0,4479279,0 STARLINK-3321,1 50803U 22001A   24252.90933736  .00001024  00000-0  82387-4 0  9995,2 50803  53.2179 103.7092 0001383  88.3140 271.8010 15.08851330147865,2022-001A,50803,6917.846,95.437,540.667,538.754,1
GENERATED VIA SPACETRACK.ORG API,18 SPCS,50803,STARLINK-3321,PAYLOAD,U,22001A,2024-09-08 23:24:49,870944,15.08849109,0.0001453,53.217,103.4116,92.1069,268.009,0,999,14914,0.00015977,2.256e-05,0.0,4479541,0 STARLINK-3321,1 50803U 22001A   24252.97557721  .00002256  00000-0  15977-3 0  9996,2 50803  53.2170 103.4116 0001453  92.1069 268.0090 15.08849109149141,2022-001A,50803,6917.853,95.437,540.723,538.712,1
GENERATED VIA SPACETRACK.ORG API,18 SPCS,50803,STARLINK-3321,PAYLOAD,U,22001A,2024-09-09 07:21:45,658080,15.08845437,0.0001467,53.2171,101.926,85.5035,274.6124,0,999,14792,9.7214e-05,1.26e-05,0.0,4480636,0 STARLINK-3321,1 50803U 22001A   24253.30677845  .00001260  00000-0  97214-4 0  9993,2 50803  53.2171 101.9260 0001467  85.5035 274.6124 15.08845437147924,2022-001A,50803,6917.864,95.437,540.744,538.714,1
GENERATED VIA SPACETRACK.ORG API,18 SPCS,50803,STARLINK-3321,PAYLOAD,U,22001A,2024-09-09 20:04:50,713248,15.08847619,0.0001568,53.2178,99.5451,91.3044,268.8128,0,999,14927,0.00010204,1.337e-05,0.0,4480732,0 STARLINK-3321,1 50803U 22001A   24253.83669807  .00001337  00000-0  10204-3 0  9998,2 50803  53.2178  99.5451 0001568  91.3044 268.8128 15.08847619149275,2022-001A,50803,6917.857,95.437,540.807,538.637,1
GENERATED VIA SPACETRACK.ORG API,18 SPCS,50803,STARLINK-3321,PAYLOAD,U,22001A,2024-09-09 20:04:50,713248,15.08847619,0.0001568,53.2178,99.5451,91.3044,268.8128,0,999,14800,0.00010204,1.337e-05,0.0,4481180,0 STARLINK-3321,1 50803U 22001A   24253.83669807  .00001337  00000-0  10204-3 0  9998,2 50803  53.2178  99.5451 0001568  91.3044 268.8128 15.08847619148005,2022-001A,50803,6917.857,95.437,540.807,538.637,1
GENERATED VIA SPACETRACK.ORG API,18 SPCS,50803,STARLINK-3321,PAYLOAD,U,22001A,2024-09-10 19:55:37,570944,15.08848091,0.0001379,53.2167,95.088,96.612,263.5029,0,999,14815,3.7275e-05,3.05e-06,0.0,4483177,0 STARLINK-3321,1 50803U 22001A   24254.83029596  .00000305  00000-0  37275-4 0  9996,2 50803  53.2167  95.0880 0001379  96.6120 263.5029 15.08848091148156,2022-001A,50803,6917.856,95.437,540.675,538.767,1
GENERATED VIA SPACETRACK.ORG API,18 SPCS,50803,STARLINK-3321,PAYLOAD,U,22001A,2024-09-11 13:24:52,754688,15.08830878,0.0001489,53.2155,91.8179,88.8876,271.2287,0,999,14953,0.00018699,2.689e-05,0.0,4484017,0 STARLINK-3321,1 50803U 22001A   24255.55894392  .00002689  00000-0  18699-3 0  9995,2 50803  53.2155  91.8179 0001489  88.8876 271.2287 15.08830878149530,2022-001A,50803,6917.908,95.438,540.803,538.743,1
GENERATED VIA SPACETRACK.ORG API,18 SPCS,50803,STARLINK-3321,PAYLOAD,U,22001A,2024-09-11 19:46:25,150944,15.08837778,0.0001499,53.2161,90.6271,90.5301,269.5863,0,999,14830,2.8051e-05,1.58e-06,0.0,4485202,0 STARLINK-3321,1 50803U 22001A   24255.82390221  .00000158  00000-0  28051-4 0  9990,2 50803  53.2161  90.6271 0001499  90.5301 269.5863 15.08837778148301,2022-001A,50803,6917.887,95.438,540.789,538.715,1
GENERATED VIA SPACETRACK.ORG API,18 SPCS,50803,STARLINK-3321,PAYLOAD,U,22001A,2024-09-12 13:15:39,156192,15.08843531,0.000134,53.2174,87.3556,87.1381,272.9764,0,999,14968,9.2094e-05,1.178e-05,0.0,4485959,0 STARLINK-3321,1 50803U 22001A   24256.55253653  .00001178  00000-0  92094-4 0  9999,2 50803  53.2174  87.3556 0001340  87.1381 272.9764 15.08843531149683,2022-001A,50803,6917.87,95.437,540.662,538.808,1
GENERATED VIA SPACETRACK.ORG API,18 SPCS,50803,STARLINK-3321,PAYLOAD,U,22001A,2024-09-12 22:47:58,632288,15.087976,0.0001706,53.2173,85.571,101.257,258.8614,0,999,14847,0.00098086,0.00015339,0.0,4487389,0 STARLINK-3321,1 50803U 22001A   24256.94998417  .00015339  00000-0  98086-3 0  9996,2 50803  53.2173  85.5710 0001706 101.2570 258.8614 15.08797600148476,2022-001A,50803,6918.01,95.44,541.055,538.695,1
GENERATED VIA SPACETRACK.ORG API,18 SPCS,50803,STARLINK-3321,PAYLOAD,U,22001A,2024-09-13 05:09:29,774880,15.08852249,0.0001374,53.2173,84.3824,113.2842,246.8295,0,999,14978,8.2708e-05,1.029e-05,0.0,4487571,0 STARLINK-3321,1 50803U 22001A   24257.21492795  .00001029  00000-0  82708-4 0  9991,2 50803  53.2173  84.3824 0001374 113.2842 246.8295 15.08852249149783,2022-001A,50803,6917.843,95.437,540.658,538.757,1
GENERATED VIA SPACETRACK.ORG API,18 SPCS,50803,STARLINK-3321,PAYLOAD,U,22001A,2024-09-13 13:06:26,112384,15.08842748,0.0001654,53.2185,82.8925,100.6535,259.4644,0,999,14983,8.669e-05,1.092e-05,0.0,4488310,0 STARLINK-3321,1 50803U 22001A   24257.54613556  .00001092  00000-0  86690-4 0  9991,2 50803  53.2185  82.8925 0001654 100.6535 259.4644 15.08842748149838,2022-001A,50803,6917.872,95.437,540.881,538.593,1
GENERATED VIA SPACETRACK.ORG API,18 SPCS,50803,STARLINK-3321,PAYLOAD,U,22001A,2024-09-14 11:21:50,719680,15.08826987,0.0001764,53.2167,78.7292,76.774,283.3449,0,999,14997,-0.00021691,-3.737e-05,0.0,4490231,0 STARLINK-3321,1 50803U 22001A   24258.47350370 -.00003737  00000-0 -21691-3 0  9995,2 50803  53.2167  78.7292 0001764  76.7740 283.3449 15.08826987149973,2022-001A,50803,6917.92,95.438,541.005,538.565,1
GENERATED VIA SPACETRACK.ORG API,18 SPCS,50803,STARLINK-3321,PAYLOAD,U,22001A,2024-09-14 11:21:50,719680,15.08826987,0.0001764,53.2167,78.7292,76.774,283.3449,0,999,14870,-0.00021691,-3.737e-05,0.0,4490768,0 STARLINK-3321,1 50803U 22001A   24258.47350370 -.00003737  00000-0 -21691-3 0  9995,2 50803  53.2167  78.7292 0001764  76.7740 283.3449 15.08826987148703,2022-001A,50803,6917.92,95.438,541.005,538.565,1
GENERATED VIA SPACETRACK.ORG API,18 SPCS,50803,STARLINK-3321,PAYLOAD,U,22001A,2024-09-14 19:18:46,806624,15.08831397,0.0001737,53.2183,77.2481,116.3836,243.7335,0,999,14875,-8.4957e-05,-1.64e-05,0.0,4491570,0 STARLINK-3321,1 50803U 22001A   24258.80470841 -.00001640  00000-0 -84957-4 0  9994,2 50803  53.2183  77.2481 0001737 116.3836 243.7335 15.08831397148752,2022-001A,50803,6917.907,95.438,540.973,538.57,1
GENERATED VIA SPACETRACK.ORG API,18 SPCS,50803,STARLINK-3321,PAYLOAD,U,22001A,2024-09-15 04:51:05,363424,15.08836302,0.0001397,53.2181,75.4626,96.5508,263.5643,0,999,15008,-1.1206e-06,-3.06e-06,0.0,4491678,0 STARLINK-3321,1 50803U 22001A   24259.20214541 -.00000306  00000-0 -11206-5 0  9998,2 50803  53.2181  75.4626 0001397  96.5508 263.5643 15.08836302150080,2022-001A,50803,6917.892,95.438,540.723,538.79,1
GENERATED VIA SPACETRACK.ORG API,18 SPCS,50803,STARLINK-3321,PAYLOAD,U,22001A,2024-09-15 19:09:33,191712,15.08843116,0.0001274,53.2181,72.7863,93.852,266.2618,0,999,14890,7.831e-05,9.59e-06,0.0,4493626,0 STARLINK-3321,1 50803U 22001A   24259.79830083  .00000959  00000-0  78310-4 0  9997,2 50803  53.2181  72.7863 0001274  93.8520 266.2618 15.08843116148902,2022-001A,50803,6917.871,95.437,540.617,538.855,1
